[
    {
        "Altitude(m)": 553488.5199570839,
        "Argument of Periapsis(deg)": 0.0,
        "Eccentricity": 0.0,
        "Inclination(deg)": 53.0,
        "Latitude(deg)": 13.004324565194013,
        "Longitude(deg)": 165.06391734380048,
        "Mean Anomaly(deg)": 163.6364,
        "RAAN(deg)": 95.0,
        "Satellite Name": "Starlink Shell 1 428",
        "Satellite Number": 428,
        "Semi-Major Axis(m)": 6931778.249405717,
        "Time(s)": 0
    },
    {
        "Altitude(m)": 553483.8691122753,
        "Argument of Periapsis(deg)": 0.00034857847951123687,
        "Eccentricity": 0.0,
        "Inclination(deg)": 53.0,
        "Latitude(deg)": 12.507763884687686,
        "Longitude(deg)": 165.41858396227738,
        "Mean Anomaly(deg)": 164.26323120355678,
        "RAAN(deg)": 94.99948122992252,
        "Satellite Name": "Starlink Shell 1 428",
        "Satellite Number": 428,
        "Semi-Major Axis(m)": 6931778.249405717,
        "Time(s)": 10
    },
    {
        "Altitude(m)": 553481.8001915358,
        "Argument of Periapsis(deg)": 0.0006971569590224737,
        "Eccentricity": 0.0,
        "Inclination(deg)": 53.0,
        "Latitude(deg)": 12.010609711697276,
        "Longitude(deg)": 165.7717374718158,
        "Mean Anomaly(deg)": 164.89006240711345,
        "RAAN(deg)": 94.99896245984507,
        "Satellite Name": "Starlink Shell 1 428",
        "Satellite Number": 428,
        "Semi-Major Axis(m)": 6931778.249405717,
        "Time(s)": 20
    },
    {
        "Altitude(m)": 553482.3370471855,
        "Argument of Periapsis(deg)": 0.0010457354385337105,
        "Eccentricity": 0.0,
        "Inclination(deg)": 53.0,
        "Latitude(deg)": 11.51288869078084,
        "Longitude(deg)": 166.12344317575167,
        "Mean Anomaly(deg)": 165.51689361067017,
        "RAAN(deg)": 94.9984436897676,
        "Satellite Name": "Starlink Shell 1 428",
        "Satellite Number": 428,
        "Semi-Major Axis(m)": 6931778.249405717,
        "Time(s)": 30
    },
    {
        "Altitude(m)": 553485.5023374549,
        "Argument of Periapsis(deg)": 0.0013943139180449475,
        "Eccentricity": 0.0,
        "Inclination(deg)": 53.0,
        "Latitude(deg)": 11.014627156474976,
        "Longitude(deg)": 166.4737662565767,
        "Mean Anomaly(deg)": 166.14372481422683,
        "RAAN(deg)": 94.99792491969012,
        "Satellite Name": "Starlink Shell 1 428",
        "Satellite Number": 428,
        "Semi-Major Axis(m)": 6931778.249405717,
        "Time(s)": 40
    },
    {
        "Altitude(m)": 553491.317512493,
        "Argument of Periapsis(deg)": 0.0017428923975561844,
        "Eccentricity": 0.0,
        "Inclination(deg)": 53.0,
        "Latitude(deg)": 10.515851148192926,
        "Longitude(deg)": 166.82277079416244,
        "Mean Anomaly(deg)": 166.7705560177836,
        "RAAN(deg)": 94.99740614961264,
        "Satellite Name": "Starlink Shell 1 428",
        "Satellite Number": 428,
        "Semi-Major Axis(m)": 6931778.249405717,
        "Time(s)": 50
    },
    {
        "Altitude(m)": 553499.8028009546,
        "Argument of Periapsis(deg)": 0.002091470877067421,
        "Eccentricity": 0.0,
        "Inclination(deg)": 53.0,
        "Latitude(deg)": 10.016586424848365,
        "Longitude(deg)": 167.17052029678493,
        "Mean Anomaly(deg)": 167.39738722134035,
        "RAAN(deg)": 94.99688737953517,
        "Satellite Name": "Starlink Shell 1 428",
        "Satellite Number": 428,
        "Semi-Major Axis(m)": 6931778.249405717,
        "Time(s)": 60
    },
    {
        "Altitude(m)": 553510.9771971905,
        "Argument of Periapsis(deg)": 0.0024400493565786582,
        "Eccentricity": 0.0,
        "Inclination(deg)": 53.0,
        "Latitude(deg)": 9.516858479220396,
        "Longitude(deg)": 167.51707823207053,
        "Mean Anomaly(deg)": 168.02421842489701,
        "RAAN(deg)": 94.99636860945769,
        "Satellite Name": "Starlink Shell 1 428",
        "Satellite Number": 428,
        "Semi-Major Axis(m)": 6931778.249405717,
        "Time(s)": 70
    },
    {
        "Altitude(m)": 553524.8584490567,
        "Argument of Periapsis(deg)": 0.002788627836089895,
        "Eccentricity": 0.0,
        "Inclination(deg)": 53.0,
        "Latitude(deg)": 9.016692552073224,
        "Longitude(deg)": 167.86250704498318,
        "Mean Anomaly(deg)": 168.65104962845373,
        "RAAN(deg)": 94.99584983938024,
        "Satellite Name": "Starlink Shell 1 428",
        "Satellite Number": 428,
        "Semi-Major Axis(m)": 6931778.249405717,
        "Time(s)": 80
    },
    {
        "Altitude(m)": 553541.4630463251,
        "Argument of Periapsis(deg)": 0.0031372063156011316,
        "Eccentricity": 0.0,
        "Inclination(deg)": 53.0,
        "Latitude(deg)": 8.516113646040179,
        "Longitude(deg)": 168.2068686885947,
        "Mean Anomaly(deg)": 169.27788083201042,
        "RAAN(deg)": 94.99533106930276,
        "Satellite Name": "Starlink Shell 1 428",
        "Satellite Number": 428,
        "Semi-Major Axis(m)": 6931778.249405717,
        "Time(s)": 90
    },
    {
        "Altitude(m)": 553560.8062097172,
        "Argument of Periapsis(deg)": 0.0034857847951123688,
        "Eccentricity": 0.0,
        "Inclination(deg)": 53.0,
        "Latitude(deg)": 8.015146539284242,
        "Longitude(deg)": 168.55022515476458,
        "Mean Anomaly(deg)": 169.9047120355672,
        "RAAN(deg)": 94.99481229922526,
        "Satellite Name": "Starlink Shell 1 428",
        "Satellite Number": 428,
        "Semi-Major Axis(m)": 6931778.249405717,
        "Time(s)": 100
    },
    {
        "Altitude(m)": 553582.9018805457,
        "Argument of Periapsis(deg)": 0.003834363274623606,
        "Eccentricity": 0.0,
        "Inclination(deg)": 53.0,
        "Latitude(deg)": 7.513815798951999,
        "Longitude(deg)": 168.8926374918506,
        "Mean Anomaly(deg)": 170.53154323912386,
        "RAAN(deg)": 94.99429352914781,
        "Satellite Name": "Starlink Shell 1 428",
        "Satellite Number": 428,
        "Semi-Major Axis(m)": 6931778.249405717,
        "Time(s)": 110
    },
    {
        "Altitude(m)": 553607.7627110495,
        "Argument of Periapsis(deg)": 0.004182941754134842,
        "Eccentricity": 0.0,
        "Inclination(deg)": 53.0,
        "Latitude(deg)": 7.012145794425994,
        "Longitude(deg)": 169.23416633520011,
        "Mean Anomaly(deg)": 171.1583744426806,
        "RAAN(deg)": 94.99377475907033,
        "Satellite Name": "Starlink Shell 1 428",
        "Satellite Number": 428,
        "Semi-Major Axis(m)": 6931778.249405717,
        "Time(s)": 120
    },
    {
        "Altitude(m)": 553635.4000552814,
        "Argument of Periapsis(deg)": 0.004531520233646079,
        "Eccentricity": 0.0,
        "Inclination(deg)": 53.0,
        "Latitude(deg)": 6.510160710392794,
        "Longitude(deg)": 169.5748724375456,
        "Mean Anomaly(deg)": 171.78520564623727,
        "RAAN(deg)": 94.99325598899286,
        "Satellite Name": "Starlink Shell 1 428",
        "Satellite Number": 428,
        "Semi-Major Axis(m)": 6931778.249405717,
        "Time(s)": 130
    },
    {
        "Altitude(m)": 553665.823960712,
        "Argument of Periapsis(deg)": 0.0048800987131573164,
        "Eccentricity": 0.0,
        "Inclination(deg)": 53.0,
        "Latitude(deg)": 6.007884559737877,
        "Longitude(deg)": 169.91481568643633,
        "Mean Anomaly(deg)": 172.412036849794,
        "RAAN(deg)": 94.99273721891538,
        "Satellite Name": "Starlink Shell 1 428",
        "Satellite Number": 428,
        "Semi-Major Axis(m)": 6931778.249405717,
        "Time(s)": 140
    },
    {
        "Altitude(m)": 553699.0431604354,
        "Argument of Periapsis(deg)": 0.005228677192668553,
        "Eccentricity": 0.0,
        "Inclination(deg)": 53.0,
        "Latitude(deg)": 5.505341196277328,
        "Longitude(deg)": 170.2540556344514,
        "Mean Anomaly(deg)": 173.03886805335077,
        "RAAN(deg)": 94.9922184488379,
        "Satellite Name": "Starlink Shell 1 428",
        "Satellite Number": 428,
        "Semi-Major Axis(m)": 6931778.249405717,
        "Time(s)": 150
    },
    {
        "Altitude(m)": 553735.0650660571,
        "Argument of Periapsis(deg)": 0.00557725567217979,
        "Eccentricity": 0.0,
        "Inclination(deg)": 53.0,
        "Latitude(deg)": 5.002554327338708,
        "Longitude(deg)": 170.59265202932696,
        "Mean Anomaly(deg)": 173.6656992569075,
        "RAAN(deg)": 94.99169967876043,
        "Satellite Name": "Starlink Shell 1 428",
        "Satellite Number": 428,
        "Semi-Major Axis(m)": 6931778.249405717,
        "Time(s)": 160
    },
    {
        "Altitude(m)": 553773.895761224,
        "Argument of Periapsis(deg)": 0.0059258341516910265,
        "Eccentricity": 0.0,
        "Inclination(deg)": 53.0,
        "Latitude(deg)": 4.499547526205716,
        "Longitude(deg)": 170.93066383112648,
        "Mean Anomaly(deg)": 174.29253046046418,
        "RAAN(deg)": 94.99118090868298,
        "Satellite Name": "Starlink Shell 1 428",
        "Satellite Number": 428,
        "Semi-Major Axis(m)": 6931778.249405717,
        "Time(s)": 170
    },
    {
        "Altitude(m)": 553815.5399958186,
        "Argument of Periapsis(deg)": 0.006274412631202263,
        "Eccentricity": 0.0,
        "Inclination(deg)": 53.0,
        "Latitude(deg)": 3.99634424443448,
        "Longitude(deg)": 171.26814974220486,
        "Mean Anomaly(deg)": 174.9193616640209,
        "RAAN(deg)": 94.9906621386055,
        "Satellite Name": "Starlink Shell 1 428",
        "Satellite Number": 428,
        "Semi-Major Axis(m)": 6931778.249405717,
        "Time(s)": 180
    }
]